NORAD_CAT_ID,OBJECT_NAME,OBJECT_TYPE,EPOCH,MEAN_MOTION,ECCENTRICITY,INCLINATION,RA_OF_ASC_NODE,ARG_OF_PERICENTER,MEAN_ANOMALY,BSTAR,MEAN_MOTION_DOT,MEAN_MOTION_DDOT,TLE_LINE0,TLE_LINE1,TLE_LINE2,SEMIMAJOR_AXIS,PERIOD,APOGEE,PERIGEE,DECAYED
52850.0,STARLINK-4187,PAYLOAD,2022-11-01 22:00:00,15.0881287,0.0001878,53.2174,127.8448,56.6832,222.046,0.0026387,0.00041926,0.0,0 STARLINK-4187,1 52850U 22062W   22305.91667824  .00041926  00000-0  26387-2 0  9997,2 52850  53.2174 127.8448 0001878  56.6832 222.0460 15.08812870  1302,6917.9630000000025,95.439,541.128,538.529,0.0
52850.0,STARLINK-4187,PAYLOAD,2022-11-02 06:00:00,15.08840537,0.0001724,53.2174,126.3469,60.9637,229.3478,-0.00033644,-5.639e-05,0.0,0 STARLINK-4187,1 52850U 22062W   22306.25001157 -.00005639  00000-0 -33644-3 0  9994,2 52850  53.2174 126.3469 0001724  60.9637 229.3478 15.08840537 21582,6917.879,95.438,540.936,538.5509999999998,0.0
52850.0,STARLINK-4187,PAYLOAD,2022-11-02 14:00:01,15.08857348,0.0001713,53.2175,124.8506,65.0623,236.8372,-0.00058655,-9.615e-05,0.0,0 STARLINK-4187,1 52850U 22062W   22306.58334491 -.00009615  00000-0 -58655-3 0  9997,2 52850  53.2175 124.8506 0001713  65.0623 236.8372 15.08857348  1309,6917.8269999999975,95.436,540.877,538.507,0.0
52850.0,STARLINK-4187,PAYLOAD,2022-11-02 18:00:02,15.08856667,0.0001811,53.2176,124.1038,60.8359,66.9329,-0.0012102,-0.00019506,0.0,0 STARLINK-4187,1 52850U 22062W   22306.75002315 -.00019506  00000-0 -12102-2 0  9999,2 52850  53.2176 124.1038 0001811  60.8359  66.9329 15.08856667  1308,6917.829000000002,95.437,540.947,538.442,0.0
52850.0,STARLINK-4187,PAYLOAD,2022-11-03 10:55:26,15.08839907,0.0001743,53.2176,120.9366,61.0423,299.0743,0.00017546,2.505e-05,0.0,0 STARLINK-4187,1 52850U 22062W   22307.45517048  .00002505  00000-0  17546-3 0  9998,2 52850  53.2176 120.9366 0001743  61.0423 299.0743 15.08839907 21764,6917.880999999999,95.438,540.951,538.54,0.0
52850.0,STARLINK-4187,PAYLOAD,2022-11-03 15:41:36,15.08835323,0.0001892,53.2166,120.0445,43.68899999999999,316.4251,0.00014606,2.037e-05,0.0,0 STARLINK-4187,1 52850U 22062W   22307.65389552  .00002037  00000-0  14606-3 0  9991,2 52850  53.2166 120.0445 0001892  43.6890 316.4251 15.08835323 21307,6917.895,95.438,541.069,538.451,0.0
52850.0,STARLINK-4187,PAYLOAD,2022-11-04 10:46:13,15.08847068,0.0001714,53.2179,116.4746,74.1579,285.9602,9.1367e-05,1.167e-05,0.0,0 STARLINK-4187,1 52850U 22062W   22308.44876838  .00001167  00000-0  91367-4 0  9990,2 52850  53.2179 116.4746 0001714  74.1579 285.9602 15.08847068 21422,6917.859,95.437,540.91,538.538,0.0
52850.0,STARLINK-4187,PAYLOAD,2022-11-04 20:18:34,15.08769304,0.000197,53.2177,114.6895,72.9886,287.1322,0.0011287,0.00017686,0.0,0 STARLINK-4187,1 52850U 22062W   22308.84623726  .00017686  00000-0  11287-2 0  9994,2 52850  53.2177 114.6895 0001970  72.9886 287.1322 15.08769304 21481,6918.096,95.442,541.3240000000002,538.599,0.0
52850.0,STARLINK-4187,PAYLOAD,2022-11-05 10:37:01,15.08839988,0.0001365,53.2178,112.0131,53.3269,306.7848,8.6487e-06,-1.5e-06,0.0,0 STARLINK-4187,1 52850U 22062W   22309.44237269 -.00000150  00000-0  86487-5 0  9990,2 52850  53.2178 112.0131 0001365  53.3269 306.7848 15.08839988 22065,6917.88,95.438,540.69,538.8009999999998,0.0
52850.0,STARLINK-4187,PAYLOAD,2022-11-05 16:58:33,15.08838021,0.0001409999999999,53.218,110.8239,52.0346,308.0773,-8.847e-06,-4.29e-06,0.0,0 STARLINK-4187,1 52850U 22062W   22309.70733452 -.00000429  00000-0 -88470-5 0  9998,2 52850  53.2180 110.8239 0001410  52.0346 308.0773 15.08838021 21615,6917.886,95.438,540.727,538.776,0.0
52850.0,STARLINK-4187,PAYLOAD,2022-11-06 10:27:47,15.08842379,0.0001452,53.218,107.5528,49.0219,311.0898,5.339e-05,5.62e-06,0.0,0 STARLINK-4187,1 52850U 22062W   22310.43596923  .00000562  00000-0  53390-4 0  9998,2 52850  53.2180 107.5528 0001452  49.0219 311.0898 15.08842379 21725,6917.873000000001,95.437,540.743,538.734,0.0
52850.0,STARLINK-4187,PAYLOAD,2022-11-06 20:00:07,15.08834408,0.000158,53.2191,105.7724,54.9262,305.1878,3.6897e-05,2.99e-06,0.0,0 STARLINK-4187,1 52850U 22062W   22310.83341531  .00000299  00000-0  36897-4 0  9995,2 52850  53.2191 105.7724 0001580  54.9262 305.1878 15.08834408 22277,6917.897,95.438,540.856,538.669,0.0
52850.0,STARLINK-4187,PAYLOAD,2022-11-07 19:50:54,15.08835285,0.000171,53.2194,101.3128,52.1696,307.9451,6.281e-05,7.12e-06,0.0,0 STARLINK-4187,1 52850U 22062W   22311.82701565  .00000712  00000-0  62810-4 0  9996,2 52850  53.2194 101.3128 0001710  52.1696 307.9451 15.08835285 21939,6917.895,95.438,540.943,538.577,0.0
52850.0,STARLINK-4187,PAYLOAD,2022-11-08 08:33:58,15.08844847,0.000172,53.2196,98.9346,49.905,310.2093,7.1716e-05,8.54e-06,0.0,0 STARLINK-4187,1 52850U 22062W   22312.35692824  .00000854  00000-0  71716-4 0  9994,2 52850  53.2196  98.9346 0001720  49.9050 310.2093 15.08844847 22500,6917.866,95.437,540.92,538.5409999999998,0.0
52850.0,STARLINK-4187,PAYLOAD,2022-11-08 16:30:53,15.08852261,0.0001740999999999,53.2195,97.4473,53.24100000000001,306.8742,0.00012976,1.778e-05,0.0,0 STARLINK-4187,1 52850U 22062W   22312.68812073  .00001778  00000-0  12976-3 0  9998,2 52850  53.2195  97.4473 0001741  53.2410 306.8742 15.08852261 22551,6917.843000000003,95.437,540.9119999999998,538.504,0.0
52850.0,STARLINK-4187,PAYLOAD,2022-11-09 14:46:18,15.08832239,0.0001649,53.2206,93.2846,64.5811,295.5351,-6.0445e-05,-1.25e-05,0.0,0 STARLINK-4187,1 52850U 22062W   22313.61549517 -.00001250  00000-0 -60445-4 0  9994,2 52850  53.2206  93.2846 0001649  64.5811 295.5351 15.08832239 22204,6917.904,95.438,540.91,538.628,0.0
52850.0,STARLINK-4187,PAYLOAD,2022-11-09 16:21:43,15.08817216,0.000178,53.22,92.9877,58.607,301.5096,-0.00019312,-3.358e-05,0.0,0 STARLINK-4187,1 52850U 22062W   22313.68174813 -.00003358  00000-0 -19312-3 0  9991,2 52850  53.2200  92.9877 0001780  58.6070 301.5096 15.08817216 22702,6917.95,95.439,541.0459999999998,538.5840000000002,0.0
52850.0,STARLINK-4187,PAYLOAD,2022-11-10 13:01:44,15.08826147,0.0001771999999999,53.2193,89.1207,61.9205,298.1966,-0.00015785,-2.798e-05,0.0,0 STARLINK-4187,1 52850U 22062W   22314.54287176 -.00002798  00000-0 -15785-3 0  9991,2 52850  53.2193  89.1207 0001772  61.9205 298.1966 15.08826147 22346,6917.9230000000025,95.438,541.014,538.562,0.0
52850.0,STARLINK-4187,PAYLOAD,2022-11-10 14:37:06,15.08832847,0.0001795,53.2195,88.8235,60.2943,299.8228,-9.7665e-05,-1.842e-05,0.0,0 STARLINK-4187,1 52850U 22062W   22314.60910619 -.00001842  00000-0 -97665-4 0  9990,2 52850  53.2195  88.8235 0001795  60.2943 299.8228 15.08832847 22849,6917.901999999999,95.438,541.009,538.525,0.0
52850.0,STARLINK-4187,PAYLOAD,2022-11-11 12:52:30,15.08830639,0.0001544,53.2205,84.6605,68.3932,291.7225,0.00016698,2.37e-05,0.0,0 STARLINK-4187,1 52850U 22062W   22315.53646472  .00002370  00000-0  16698-3 0  9997,2 52850  53.2205  84.6605 0001544  68.3932 291.7225 15.08830639 22491,6917.909000000002,95.438,540.842,538.706,0.0
52850.0,STARLINK-4187,PAYLOAD,2022-11-11 16:03:16,15.08836772,0.0001872,53.2198,84.0666,72.4234,287.6962,0.00013662,1.887e-05,0.0,0 STARLINK-4187,1 52850U 22062W   22315.66894330  .00001887  00000-0  13662-3 0  9999,2 52850  53.2198  84.0666 0001872  72.4234 287.6962 15.08836772 23002,6917.89,95.438,541.05,538.46,0.0
52850.0,STARLINK-4187,PAYLOAD,2022-11-12 14:18:39,15.08880473,0.0001545,53.2193,79.902,52.8974,307.2159,-0.00028685,-4.855e-05,0.0,0 STARLINK-4187,1 52850U 22062W   22316.59628882 -.00004855  00000-0 -28685-3 0  9990,2 52850  53.2193  79.9020 0001545  52.8974 307.2159 15.08880473 23143,6917.757,95.435,540.69,538.553,0.0
52850.0,STARLINK-4187,PAYLOAD,2022-11-12 17:29:26,15.08852284,0.0001817,53.2185,79.3072,49.6188,310.4963,0.00038295,5.814e-05,0.0,0 STARLINK-4187,1 52850U 22062W   22316.72878075  .00005814  00000-0  38295-3 0  9998,2 52850  53.2185  79.3072 0001817  49.6188 310.4963 15.08852284 23168,6917.843000000003,95.437,540.965,538.451,0.0
52850.0,STARLINK-4187,PAYLOAD,2022-11-13 07:47:54,15.08847248,0.0002047,53.2182,76.6315,48.1865,311.9302,7.1227e-05,8.46e-06,0.0,0 STARLINK-4187,1 52850U 22062W   22317.32494127  .00000846  00000-0  71227-4 0  9990,2 52850  53.2182  76.6315 0002047  48.1865 311.9302 15.08847248 23254,6917.858,95.437,541.139,538.307,0.0
52850.0,STARLINK-4187,PAYLOAD,2022-11-13 15:44:51,15.08837126,0.0001736,53.22,75.1451,52.8821,307.233,-2.5017e-05,-6.86e-06,0.0,0 STARLINK-4187,1 52850U 22062W   22317.65615074 -.00000686  00000-0 -25017-4 0  9992,2 52850  53.2200  75.1451 0001736  52.8821 307.2330 15.08837126 23307,6917.889,95.438,540.955,538.553,0.0
52850.0,STARLINK-4187,PAYLOAD,2022-11-14 10:49:28,15.08844367,0.0002086,53.2199,71.5784,42.0054,318.1098,8.8464e-06,-1.47e-06,0.0,0 STARLINK-4187,1 52850U 22062W   22318.45102466 -.00000147  00000-0  88464-5 0  9994,2 52850  53.2199  71.5784 0002086  42.0054 318.1098 15.08844367 22936,6917.8669999999975,95.437,541.175,538.289,0.0
52850.0,STARLINK-4187,PAYLOAD,2022-11-14 15:35:37,15.088515300000005,0.0001824,53.2201,70.6855,43.4014,316.7122,2.3803e-05,9.1e-07,0.0,0 STARLINK-4187,1 52850U 22062W   22318.64973775  .00000091  00000-0  23803-4 0  9996,2 52850  53.2201  70.6855 0001824  43.4014 316.7122 15.08851530 22964,6917.845,95.437,540.972,538.448,0.0
52850.0,STARLINK-4187,PAYLOAD,2022-11-15 05:54:05,15.08844327,0.0001845,53.2194,68.0079,47.4455,312.6693,3.8939e-05,3.32e-06,0.0,0 STARLINK-4187,1 52850U 22062W   22319.24589974  .00000332  00000-0  38939-4 0  9991,2 52850  53.2194  68.0079 0001845  47.4455 312.6693 15.08844327 23549,6917.8669999999975,95.437,541.009,538.456,0.0
52850.0,STARLINK-4187,PAYLOAD,2022-11-15 13:51:02,15.08835544,0.0001857,53.2197,66.5214,44.5365,315.5776,5.7152e-05,6.21e-06,0.0,0 STARLINK-4187,1 52850U 22062W   22319.57710661  .00000621  00000-0  57152-4 0  9995,2 52850  53.2197  66.5214 0001857  44.5365 315.5776 15.08835544 23104,6917.894,95.438,541.044,538.474,0.0
